{"type": "FeatureCollection", "features": [ {"type": "Feature", "properties": {"norad_id": 61186, "name": "BEIDOU-3 M25 (C47)", "group": "beidou", "lat": 36.467859116857866, "lon": -20.160742589549173, "alt_km": 21527.922850631305, "timestamp": "2025-12-27T03:58:44.418176+00:00", "meta": {"OBJECT_NAME": "BEIDOU-3 M25 (C47)", "OBJECT_ID": "2024-168B", "EPOCH": "2025-12-26T18:59:26.401920", "MEAN_MOTION": 1.86229914, "ECCENTRICITY": 0.0005395, "INCLINATION": 54.6295, "RA_OF_ASC_NODE": 308.2341, "ARG_OF_PERICENTER": 300.4644, "MEAN_ANOMALY": 215.1716, "EPHEMERIS_TYPE": 0, "CLASSIFICATION_TYPE": "U", "NORAD_CAT_ID": 61186, "ELEMENT_SET_NO": 999, "REV_AT_EPOCH": 857, "BSTAR": 0, "MEAN_MOTION_DOT": -5.8e-07, "MEAN_MOTION_DDOT": 0}, "tle": {"line1": "1 61186U 24168B   25360.79127780 -.00000058  00000+0  00000+0 0  9992", "line2": "2 61186  54.6295 308.2341 0005395 300.4644 215.1716  1.86229914  8574"}}, "geometry": {"type": "Point", "coordinates": [-20.160742589549173, 36.467859116857866]}}, {"type": "Feature", "properties": {"norad_id": 61187, "name": "BEIDOU-3 M27 (C49)", "group": "beidou", "lat": -1.395565267218392, "lon": 129.1793168116768, "alt_km": 21535.245933928887, "timestamp": "2025-12-27T03:58:44.418187+00:00", "meta": {"OBJECT_NAME": "BEIDOU-3 M27 (C49)", "OBJECT_ID": "2024-168C", "EPOCH": "2025-12-26T02:09:38.712960", "MEAN_MOTION": 1.86230112, "ECCENTRICITY": 0.00025351, "INCLINATION": 54.6256, "RA_OF_ASC_NODE": 308.2421, "ARG_OF_PERICENTER": 341.7609, "MEAN_ANOMALY": 198.677, "EPHEMERIS_TYPE": 0, "CLASSIFICATION_TYPE": "U", "NORAD_CAT_ID": 61187, "ELEMENT_SET_NO": 999, "REV_AT_EPOCH": 603, "BSTAR": 0, "MEAN_MOTION_DOT": -5.6e-07, "MEAN_MOTION_DDOT": 0}, "tle": {"line1": "1 61187U 24168C   25360.09003140 -.00000056  00000+0  00000+0 0  9997", "line2": "2 61187  54.6256 308.2421 0002535 341.7609 198.6770  1.86230112  6039"}}, "geometry": {"type": "Point", "coordinates": [129.1793168116768, -1.395565267218392]}}]}